$$SOE
2459580.500000000, A.D. 2022-Jan-01 00:00:00.0000, -1.013306099494021E+08, -3.066334068007940E+08, 7.672950152249932E+05,
2459587.500000000, A.D. 2022-Jan-08 00:00:00.0000, -8.892977110031036E+07, -3.083653389801237E+08, 1.412529680690706E+06,
2459594.500000000, A.D. 2022-Jan-15 00:00:00.0000, -7.639840529576215E+07, -3.096444442140445E+08, 2.055687118143409E+06,
2459601.500000000, A.D. 2022-Jan-22 00:00:00.0000, -6.375278761202642E+07, -3.104602460714918E+08, 2.695765249546051E+06,
2459608.500000000, A.D. 2022-Jan-29 00:00:00.0000, -5.101002883246544E+07, -3.108027363324581E+08, 3.331729637982056E+06,
2459615.500000000, A.D. 2022-Feb-05 00:00:00.0000, -3.818808283188375E+07, -3.106624413820595E+08, 3.962514616967380E+06,
2459622.500000000, A.D. 2022-Feb-12 00:00:00.0000, -2.530574703862941E+07, -3.100304933731976E+08, 4.587024438622624E+06,
2459629.500000000, A.D. 2022-Feb-19 00:00:00.0000, -1.238265666985633E+07, -3.088987035618046E+08, 5.204134782764554E+06,
2459636.500000000, A.D. 2022-Feb-26 00:00:00.0000, 5.607265946948814E+05, -3.072596382208769E+08, 5.812694714269400E+06,
2459643.500000000, A.D. 2022-Mar-05 00:00:00.0000, 1.350313231219353E+07, -3.051066973356457E+08, 6.411529048219904E+06,
2459650.500000000, A.D. 2022-Mar-12 00:00:00.0000, 2.642250621702162E+07, -3.024341956247472E+08, 6.999441119130686E+06,
2459657.500000000, A.D. 2022-Mar-19 00:00:00.0000, 3.929604309806817E+07, -2.992374452240106E+08, 7.575215968204886E+06,
2459664.500000000, A.D. 2022-Mar-26 00:00:00.0000, 5.210022822513978E+07, -2.955128392863388E+08, 8.137623959563076E+06,
2459671.500000000, A.D. 2022-Apr-02 00:00:00.0000, 6.481088792610760E+07, -2.912579356863061E+08, 8.685424823556945E+06,
2459678.500000000, A.D. 2022-Apr-09 00:00:00.0000, 7.740325003939761E+07, -2.864715398432272E+08, 9.217372106549382E+06,
2459685.500000000, A.D. 2022-Apr-16 00:00:00.0000, 8.985201494604605E+07, -2.811537849136771E+08, 9.732218045311734E+06,
2459692.500000000, A.D. 2022-Apr-23 00:00:00.0000, 1.021314361295347E+08, -2.753062070671440E+08, 1.022871906055191E+07,
2459699.500000000, A.D. 2022-Apr-30 00:00:00.0000, 1.142154084535868E+08, -2.689318167902935E+08, 1.070564183762462E+07,
2459706.500000000, A.D. 2022-May-07 00:00:00.0000, 1.260775671011841E+08, -2.620351668115549E+08, 1.116176952096860E+07,
2459713.500000000, A.D. 2022-May-14 00:00:00.0000, 1.376913982472660E+08, -2.546224121680840E+08, 1.159590809932879E+07,
2459720.500000000, A.D. 2022-May-21 00:00:00.0000, 1.490303589095208E+08, -2.467013601880587E+08, 1.200689317312261E+07,
2459727.500000000, A.D. 2022-May-28 00:00:00.0000, 1.600680047599584E+08, -2.382815098965788E+08, 1.239359700188698E+07,
2459734.500000000, A.D. 2022-Jun-04 00:00:00.0000, 1.707781252062107E+08, -2.293740797779451E+08, 1.275493570628154E+07,
2459741.500000000, A.D. 2022-Jun-11 00:00:00.0000, 1.811348846728296E+08, -2.199920226201950E+08, 1.308987653051871E+07,
2459748.500000000, A.D. 2022-Jun-18 00:00:00.0000, 1.911129686614954E+08, -2.101500262933288E+08, 1.339744507294556E+07,
2459755.500000000, A.D. 2022-Jun-25 00:00:00.0000, 2.006877329348807E+08, -1.998644995297777E+08, 1.367673237952087E+07,
2459762.500000000, A.D. 2022-Jul-02 00:00:00.0000, 2.098353540839839E+08, -1.891535420212253E+08, 1.392690177483236E+07,
2459769.500000000, A.D. 2022-Jul-09 00:00:00.0000, 2.185329798497287E+08, -1.780368981668539E+08, 1.414719529978201E+07,
2459776.500000000, A.D. 2022-Jul-16 00:00:00.0000, 2.267588770182244E+08, -1.665358932119653E+08, 1.433693974263219E+07,
2459783.500000000, A.D. 2022-Jul-23 00:00:00.0000, 2.344925724986143E+08, -1.546733518507593E+08, 1.449555236713228E+07,
2459790.500000000, A.D. 2022-Jul-30 00:00:00.0000, 2.417149854631428E+08, -1.424735031316224E+08, 1.462254595547882E+07,
2459797.500000000, A.D. 2022-Aug-06 00:00:00.0000, 2.484085520028148E+08, -1.299618718414243E+08, 1.471753279781947E+07,
2459804.500000000, A.D. 2022-Aug-13 00:00:00.0000, 2.545573394552488E+08, -1.171651547822607E+08, 1.478022785177973E+07,
2459811.500000000, A.D. 2022-Aug-20 00:00:00.0000, 2.601471469939907E+08, -1.041110839343580E+08, 1.481045111294208E+07,
2459818.500000000, A.D. 2022-Aug-27 00:00:00.0000, 2.651655909371277E+08, -9.082827900739428E+07, 1.480812908490520E+07,
2459825.500000000, A.D. 2022-Sep-03 00:00:00.0000, 2.696021736924583E+08, -7.734609150607993E+07, 1.477329528872274E+07,
2459832.500000000, A.D. 2022-Sep-10 00:00:00.0000, 2.734483354185103E+08, -6.369444248523164E+07, 1.470608979521692E+07,
2459839.500000000, A.D. 2022-Sep-17 00:00:00.0000, 2.766974877716906E+08, -4.990365631600741E+07, 1.460675778622805E+07,
2459846.500000000, A.D. 2022-Sep-24 00:00:00.0000, 2.793450295140735E+08, -3.600429289097039E+07, 1.447564716384281E+07,
2459853.500000000, A.D. 2022-Oct-01 00:00:00.0000, 2.813883443116733E+08, -2.202698066223997E+07, 1.431320523134400E+07,
2459860.500000000, A.D. 2022-Oct-08 00:00:00.0000, 2.828267815815836E+08, -8.002252291020256E+06, 1.411997451602673E+07,
2459867.500000000, A.D. 2022-Oct-15 00:00:00.0000, 2.836616202599419E+08, 6.039616121820262E+06, 1.389658800102875E+07,
2459874.500000000, A.D. 2022-Oct-22 00:00:00.0000, 2.838960144312240E+08, 2.006875853532928E+07, 1.364376392606170E+07,
2459881.500000000, A.D. 2022-Oct-29 00:00:00.0000, 2.835349246752108E+08, 3.405586081594324E+07, 1.336229981598198E+07,
2459888.500000000, A.D. 2022-Nov-05 00:00:00.0000, 2.825850387810507E+08, 4.797229215897628E+07, 1.305306587164742E+07,
2459895.500000000, A.D. 2022-Nov-12 00:00:00.0000, 2.810546815755151E+08, 6.179022612744331E+07, 1.271699811377803E+07,
2459902.500000000, A.D. 2022-Nov-19 00:00:00.0000, 2.789537149632070E+08, 7.548274942659950E+07, 1.235509137463743E+07,
2459909.500000000, A.D. 2022-Nov-26 00:00:00.0000, 2.762934303053700E+08, 8.902395738769212E+07, 1.196839218450616E+07,
2459916.500000000, A.D. 2022-Dec-03 00:00:00.0000, 2.730864351649054E+08, 1.023890358102377E+08, 1.155799163488425E+07,
2459923.500000000, A.D. 2022-Dec-10 00:00:00.0000, 2.693465362767998E+08, 1.155543291150049E+08, 1.112501830668578E+07,
2459930.500000000, A.D. 2022-Dec-17 00:00:00.0000, 2.650886204953603E+08, 1.284973949649491E+08, 1.067063134135665E+07,
2459937.500000000, A.D. 2022-Dec-24 00:00:00.0000, 2.603285354359628E+08, 1.411970456905048E+08, 1.019601371202596E+07,
2459944.500000000, A.D. 2022-Dec-31 00:00:00.0000, 2.550829716352662E+08, 1.536333772143953E+08, 9.702365732371099E+06,
2459951.500000000, A.D. 2023-Jan-07 00:00:00.0000, 2.493693476513610E+08, 1.657877871711165E+08, 9.190898919926636E+06,
2459958.500000000, A.D. 2023-Jan-14 00:00:00.0000, 2.432056972489451E+08, 1.776429835736333E+08, 8.662830474266537E+06,
2459965.500000000, A.D. 2023-Jan-21 00:00:00.0000, 2.366105589780520E+08, 1.891829818133059E+08, 8.119378202397093E+06,
2459972.500000000, A.D. 2023-Jan-28 00:00:00.0000, 2.296028726044462E+08, 2.003930907968316E+08, 7.561755558943704E+06,
2459979.500000000, A.D. 2023-Feb-04 00:00:00.0000, 2.222018827849147E+08, 2.112598922648728E+08, 6.991167077203959E+06,
2459986.500000000, A.D. 2023-Feb-11 00:00:00.0000, 2.144270486346665E+08, 2.217712141244018E+08, 6.408804342946067E+06,
2459993.500000000, A.D. 2023-Feb-18 00:00:00.0000, 2.062979594258272E+08, 2.319160979764084E+08, 5.815842445399493E+06,
2460000.500000000, A.D. 2023-Feb-25 00:00:00.0000, 1.978342568491007E+08, 2.416847616378375E+08, 5.213436857117072E+06,
2460007.500000000, A.D. 2023-Mar-04 00:00:00.0000, 1.890555639862622E+08, 2.510685575799872E+08, 4.602720718446851E+06,
2460014.500000000, A.D. 2023-Mar-11 00:00:00.0000, 1.799814209573118E+08, 2.600599281275473E+08, 3.984802504558593E+06,
2460021.500000000, A.D. 2023-Mar-18 00:00:00.0000, 1.706312271366885E+08, 2.686523581561946E+08, 3.360764046293333E+06,
2460028.500000000, A.D. 2023-Mar-25 00:00:00.0000, 1.610241899283737E+08, 2.768403259701323E+08, 2.731658861324698E+06,
2460035.500000000, A.D. 2023-Apr-01 00:00:00.0000, 1.511792802696721E+08, 2.846192534112612E+08, 2.098510765768394E+06,
2460042.500000000, A.D. 2023-Apr-08 00:00:00.0000, 1.411151939590303E+08, 2.919854569973142E+08, 1.462312896567225E+06,
2460049.500000000, A.D. 2023-Apr-15 00:00:00.0000, 1.308503161381435E+08, 2.989360994641804E+08, 8.240272416687757E+05,
2460056.500000000, A.D. 2023-Apr-22 00:00:00.0000, 1.204026903732611E+08, 3.054691390849645E+08, 1.845842376341820E+05,
2460063.500000000, A.D. 2023-Apr-29 00:00:00.0000, 1.097899947085595E+08, 3.115832793864734E+08, -4.551176580406576E+05,
2460070.500000000, A.D. 2023-May-06 00:00:00.0000, 9.902952256140767E+07, 3.172779213375132E+08, -1.094212138133779E+06,
2460077.500000000, A.D. 2023-May-13 00:00:00.0000, 8.813816710888971E+07, 3.225531173552994E+08, -1.731864966740727E+06,
2460084.500000000, A.D. 2023-May-20 00:00:00.0000, 7.713240903585893E+07, 3.274095268335039E+08, -2.367273733239964E+06,
2460091.500000000, A.D. 2023-May-27 00:00:00.0000, 6.602830748784911E+07, 3.318483733130625E+08, -2.999667479569614E+06,
2460098.500000000, A.D. 2023-Jun-03 00:00:00.0000, 5.484149395182256E+07, 3.358714034323621E+08, -3.628306222808301E+06,
2460105.500000000, A.D. 2023-Jun-10 00:00:00.0000, 4.358716877131954E+07, 3.394808477186654E+08, -4.252480393710971E+06,
2460112.500000000, A.D. 2023-Jun-17 00:00:00.0000, 3.228010008652104E+07, 3.426793832060090E+08, -4.871510220092952E+06,
2460119.500000000, A.D. 2023-Jun-24 00:00:00.0000, 2.093462523995963E+07, 3.454700979551159E+08, -5.484745094164625E+06,
2460126.500000000, A.D. 2023-Jul-01 00:00:00.0000, 9.564654641855318E+06, 3.478564583038326E+08, -6.091562892415956E+06,
2460133.500000000, A.D. 2023-Jul-08 00:00:00.0000, -1.816323814349311E+06, 3.498422796529680E+08, -6.691369039560378E+06,
2460140.500000000, A.D. 2023-Jul-15 00:00:00.0000, -1.319524127828327E+07, 3.514316979150341E+08, -7.283595440719947E+06,
2460147.500000000, A.D. 2023-Jul-22 00:00:00.0000, -2.455944209549838E+07, 3.526291405397131E+08, -7.867699697168037E+06,
$$EOE